ONEWEB-0113             
1 48050U 21025J   21149.30817719 -.00205066  00000-0 -81204-1 0  9997
2 48050  87.6119 328.5458 0008629  35.3735 324.8030 14.30485247 11085
ONEWEB-0112             
1 48051U 21025K   21149.91667824 -.01355648  00000-0 -53748+0 0  9998
2 48051  87.6564 328.3402 0008287  52.0570 308.4311 14.32703110  1768
ONEWEB-0156             
1 48052U 21025L   21149.91667824 -.01296565  00000-0 -51266+0 0  9994
2 48052  87.6303 328.3874 0011997  45.7110  95.0085 14.32653435  1754
ONEWEB-0161             
1 48053U 21025M   21149.91667824 -.01373340  00000-0 -77054+0 0  9995
2 48053  87.5502 328.4277 0009897  52.5102  22.2541 14.14457146 11117
ONEWEB-0158             
1 48054U 21025N   21149.91667824 -.01405682  00000-0 -59452+0 0  9993
2 48054  87.6496 328.3852 0010264  55.7922 304.6205 14.28914255  1784
ONEWEB-0157             
1 48055U 21025P   21149.91667824 -.01384033  00000-0 -63670+0 0  9997
2 48055  87.6266 328.5090 0009485  38.4147 334.0411 14.25074879  1902
ONEWEB-0162             
1 48056U 21025Q   21149.91667824 -.01378185  00000-0 -77506+0 0  9992
2 48056  87.5532 328.4395 0009004  41.0808 351.0983 14.14349122 11128
ONEWEB-0155             
1 48057U 21025R   21149.91667824 -.01372444  00000-0 -45839+0 0  9999
2 48057  87.6787 328.3328 0011923  46.3500 269.8009 14.40794535  1762
ONEWEB-0149             
1 48058U 21025S   21149.91667824 -.01325050  00000-0 -70575+0 0  9996
2 48058  87.5787 328.4243 0011417  64.6385 164.8744 14.17119584  1861
ONEWEB-0148             
1 48059U 21025T   21149.91667824 -.01335637  00000-0 -56640+0 0  9996
2 48059  87.6420 328.3613 0010787  41.3426  97.0636 14.29171219  1755
ONEWEB-0160             
1 48060U 21025U   21149.91667824 -.01342418  00000-0 -72319+0 0  9994
2 48060  87.5732 328.4278 0007672  54.0822   7.1694 14.16575061  1755
ONEWEB-0163             
1 48061U 21025V   21149.91667824 -.01319157  00000-0 -45736+0 0  9992
2 48061  87.6881 328.3438 0012077  40.6702 271.4450 14.39362836  1780
ONEWEB-0159             
1 48062U 21025W   21149.91667824 -.01337691  00000-0 -56411+0 0  9998
2 48062  87.6514 328.4013 0007663  34.7340 194.7178 14.29482122  1752
ONEWEB-0164             
1 48063U 21025X   21149.91667824 -.01362033  00000-0 -67208+0 0  9993
2 48063  87.6014 328.4151 0012604  42.5477  65.0154 14.21295954  1751
ONEWEB-0167             
1 48064U 21025Y   21149.91667824 -.01283034  00000-0 -58681+0 0  9992
2 48064  87.5886 328.4107 0010578  61.1149   3.4884 14.25088482  1789
ONEWEB-0166             
1 48065U 21025Z   21149.91667824 -.01342473  00000-0 -53290+0 0  9997
2 48065  87.6704 328.3774 0011911  42.2252 126.0232 14.32583122  1740
ONEWEB-0151             
1 48066U 21025AA  21149.91667824 -.01331436  00000-0 -57624+0 0  9990
2 48066  87.6426 328.4071 0008191  36.3258 294.1642 14.28117044 11181
ONEWEB-0170             
1 48067U 21025AB  21149.42432749 -.00357369  00000-0 -14782+0 0  9993
2 48067  87.5639 328.5437 0010488  60.0263 300.1971 14.28969038 11064
ONEWEB-0168             
1 48068U 21025AC  21149.91667824 -.01344737  00000-0 -72969+0 0  9999
2 48068  87.5710 328.4195 0008463  53.4104 294.9295 14.16189300  1741
ONEWEB-0173             
1 48069U 21025AD  21149.91667824 -.01306863  00000-0 -48050+0 0  9992
2 48069  87.6872 328.3290 0007537  51.7174 217.1331 14.36402400  1789
ONEWEB-0171             
1 48070U 21025AE  21149.91667824 -.01396017  00000-0 -57455+0 0  9993
2 48070  87.6545 328.3837 0011709  47.2870 151.9666 14.30289156 11214
ONEWEB-0172             
1 48071U 21025AF  21149.91667824 -.00921759  00000-0 -19651+0 0  9996
2 48071  87.5783 328.1994 0007938  40.7993 120.4755 14.61817618 11206
ONEWEB-0174             
1 48072U 21025AG  21149.91667824 -.01366589  00000-0 -46277+0 0  9996
2 48072  87.7128 328.3188 0012255  24.3141 235.3294 14.40092290  1784
ONEWEB-0175             
1 48073U 21025AH  21149.91667824 -.01365892  00000-0 -73988+0 0  9992
2 48073  87.5559 328.4246 0009934  55.9292  21.8996 14.16335802  1783
ONEWEB-0177             
1 48074U 21025AJ  21149.91667824 -.01328851  00000-0 -44357+0 0  9995
2 48074  87.6895 328.3352 0012026  26.3267 305.5267 14.41281859  1788
ONEWEB-0178             
1 48075U 21025AK  21149.91667824 -.01310373  00000-0 -36204+0 0  9998
2 48075  87.7142 328.3258 0012402  24.7191 311.3402 14.50398548 11259
ONEWEB-0108             
1 48076U 21025AL  21149.91667824 -.01384845  00000-0 -52948+0 0  9997
2 48076  87.6831 328.3583 0011711  28.7540  21.5603 14.34030702  1764
ONEWEB-0169             
1 48077U 21025AM  21149.91667824 -.01353513  00000-0 -65486+0 0  9997
2 48077  87.6108 328.4201 0011637  40.9719 252.6591 14.22320629  1761
ONEWEB-0176             
1 48210U 21031A   21149.91667824 -.01113449  00000-0 -96732-1 0  9995
2 48210  87.4943 301.3323 0008677 141.2906 279.0877 15.00186422  1772
ONEWEB-0184             
1 48211U 21031B   21149.91667824 -.01146036  00000-0 -11546+0 0  9992
2 48211  87.4689 301.3651 0011071 129.7197 262.6766 14.94527961  1829
ONEWEB-0179             
1 48212U 21031C   21149.91667824 -.01109307  00000-0 -89979-1 0  9990
2 48212  87.5018 301.3326 0010817 148.9550 252.4637 15.02746160  1849
ONEWEB-0180             
1 48213U 21031D   21149.91667824 -.01159506  00000-0 -13946+0 0  9996
2 48213  87.4516 301.4311 0009121 135.9337  32.1308 14.87012579  1752
ONEWEB-0218             
1 48214U 21031E   21149.91667824 -.01118464  00000-0 -82600-1 0  9990
2 48214  87.5181 301.2859 0013297 119.2130   0.1734 15.06229225  1806
ONEWEB-0209             
1 48215U 21031F   21149.91667824 -.01108573  00000-0 -90642-1 0  9996
2 48215  87.5091 301.3270 0010945 137.9530  72.9036 15.02441201  1924
ONEWEB-0198             
1 48216U 21031G   21149.91667824 -.01126157  00000-0 -10159+0 0  9998
2 48216  87.4843 301.3305 0008036 134.9118 201.1615 14.98789976  1809
ONEWEB-0189             
1 48217U 21031H   21149.91667824 -.01169601  00000-0 -11886+0 0  9998
2 48217  87.4862 301.3944 0012062 136.9455 180.9411 14.93735025  1786
ONEWEB-0196             
1 48218U 21031J   21149.91667824 -.01150823  00000-0 -13548+0 0  9992
2 48218  87.4356 301.3977 0009047 140.2786  94.1946 14.87859570  1756
ONEWEB-0183             
1 48219U 21031K   21149.91667824 -.01117257  00000-0 -10118+0 0  9997
2 48219  87.4853 301.3399 0007914 138.1122 181.6986 14.98616894  1767
ONEWEB-0185             
1 48220U 21031L   21149.91667824 -.01147713  00000-0 -11312+0 0  9996
2 48220  87.4883 301.3802 0010867 125.6089 320.3748 14.95392522  1815
ONEWEB-0187             
1 48221U 21031M   21149.91667824 -.01155243  00000-0 -12343+0 0  9999
2 48221  87.4507 301.3779 0011394 143.6313  33.4761 14.91729298  1871
ONEWEB-0192             
1 48222U 21031N   21149.91667824 -.01157063  00000-0 -14111+0 0  9997
2 48222  87.4206 301.4070 0009086 131.2902 357.2872 14.86442866  1962
ONEWEB-0219             
1 48223U 21031P   21149.91667824 -.01105666  00000-0 -81519-1 0  9998
2 48223  87.5205 301.2825 0013077 120.3560 342.0665 15.06260318  1777
ONEWEB-0202             
1 48224U 21031Q   21149.91667824 -.01118330  00000-0 -88580-1 0  9996
2 48224  87.5107 301.3110 0012163 136.9538 156.1400 15.03643397  1804
ONEWEB-0204             
1 48225U 21031R   21149.91667824 -.01125301  00000-0 -10443+0 0  9994
2 48225  87.4807 301.3506 0008277 130.7474 141.7142 14.97695062  1825
ONEWEB-0205             
1 48226U 21031S   21149.91667824 -.01117072  00000-0 -11672+0 0  9996
2 48226  87.4611 301.3704 0012841 139.5288 110.1667 14.92986758  1755
ONEWEB-0206             
1 48227U 21031T   21149.91667824 -.01148405  00000-0 -13320+0 0  9993
2 48227  87.4385 301.3865 0008893 140.0828 142.2353 14.88455516  1814
ONEWEB-0182             
1 48228U 21031U   21149.91667824  .00009592  00000-0  60672-3 0  9990
2 48228  87.4700 301.3149 0008080 138.2412 313.9761 15.08874299  1767
ONEWEB-0186             
1 48229U 21031V   21149.91667824 -.01075848  00000-0 -80916-1 0  9992
2 48229  87.4986 301.2766 0009778 122.5123 131.5849 15.05490742  1752
ONEWEB-0181             
1 48230U 21031W   21149.91667824 -.01133114  00000-0 -12313+0 0  9999
2 48230  87.4556 301.3776 0011132 142.7894 351.1251 14.91004770  1815
ONEWEB-0188             
1 48231U 21031X   21149.91667824 -.01166046  00000-0 -14755+0 0  9992
2 48231  87.4028 301.3908 0009269 128.8050 251.1645 14.84957749  1804
ONEWEB-0220             
1 48232U 21031Y   21149.91667824 -.01123322  00000-0 -86996-1 0  9991
2 48232  87.5119 301.2966 0013127 126.2632 242.7241 15.04482315  1832
ONEWEB-0165             
1 48233U 21031Z   21149.91667824 -.01106482  00000-0 -88271-1 0  9998
2 48233  87.5147 301.3116 0011695 137.5771 125.8206 15.03350046  1767
ONEWEB-0199             
1 48234U 21031AA  21149.91667824 -.01124603  00000-0 -10750+0 0  9999
2 48234  87.4707 301.3453 0008855 121.7745  68.5333 14.96541847  1804
ONEWEB-0203             
1 48235U 21031AB  21149.91667824 -.01170565  00000-0 -12415+0 0  9998
2 48235  87.4567 301.3812 0012305 138.4961 100.2656 14.92047331  1759
ONEWEB-0197             
1 48236U 21031AC  21149.91667824 -.01165139  00000-0 -13407+0 0  9992
2 48236  87.4372 301.3908 0009189 147.8492 176.0290 14.88815595  1899
ONEWEB-0194             
1 48237U 21031AD  21149.91667824 -.01091926  00000-0 -90054-1 0  9990
2 48237  87.5034 301.3186 0009167 141.8916   1.0054 15.02093402  1757
ONEWEB-0193             
1 48238U 21031AE  21149.91667824 -.01125128  00000-0 -11000+0 0  9995
2 48238  87.4693 301.3507 0010286 123.1720 350.0708 14.95650471  1754
ONEWEB-0191             
1 48239U 21031AF  21149.91667824 -.01182261  00000-0 -13656+0 0  9996
2 48239  87.4385 301.3871 0010085 145.5942 214.4677 14.88695464  1771
ONEWEB-0195             
1 48240U 21031AG  21149.91667824 -.01165097  00000-0 -14496+0 0  9999
2 48240  87.4185 301.4096 0009490 126.4262 315.4597 14.85643931  1752
